[{"OBJECT_NAME":"NOAA 17","OBJECT_ID":"2002-032A","EPOCH":"2026-03-05T22:58:47.226720","MEAN_MOTION":14.26186508,"ECCENTRICITY":0.00106557,"INCLINATION":98.8536,"RA_OF_ASC_NODE":29.5477,"ARG_OF_PERICENTER":293.6697,"MEAN_ANOMALY":66.3364,"EPHEMERIS_TYPE":0,"CLASSIFICATION_TYPE":"U","NORAD_CAT_ID":27453,"ELEMENT_SET_NO":999,"REV_AT_EPOCH":23227,"BSTAR":0.00014475517,"MEAN_MOTION_DOT":3.01e-6,"MEAN_MOTION_DDOT":0},{"OBJECT_NAME":"NOAA 18","OBJECT_ID":"2005-018A","EPOCH":"2026-03-05T22:22:27.752160","MEAN_MOTION":14.13709904,"ECCENTRICITY":0.00153439,"INCLINATION":98.8162,"RA_OF_ASC_NODE":146.0921,"ARG_OF_PERICENTER":85.4244,"MEAN_ANOMALY":274.8681,"EPHEMERIS_TYPE":0,"CLASSIFICATION_TYPE":"U","NORAD_CAT_ID":28654,"ELEMENT_SET_NO":999,"REV_AT_EPOCH":7172,"BSTAR":6.6133748e-5,"MEAN_MOTION_DOT":8.1e-7,"MEAN_MOTION_DDOT":0},{"OBJECT_NAME":"NOAA 19","OBJECT_ID":"2009-005A","EPOCH":"2026-03-05T21:54:25.030080","MEAN_MOTION":14.13455931,"ECCENTRICITY":0.00130354,"INCLINATION":98.9613,"RA_OF_ASC_NODE":135.6774,"ARG_OF_PERICENTER":326.0247,"MEAN_ANOMALY":34.0089,"EPHEMERIS_TYPE":0,"CLASSIFICATION_TYPE":"U","NORAD_CAT_ID":33591,"ELEMENT_SET_NO":999,"REV_AT_EPOCH":87989,"BSTAR":6.2334744e-5,"MEAN_MOTION_DOT":7.2e-7,"MEAN_MOTION_DDOT":0},{"OBJECT_NAME":"SUOMI NPP","OBJECT_ID":"2011-061A","EPOCH":"2026-03-05T22:29:21.642720","MEAN_MOTION":14.19542251,"ECCENTRICITY":3.986e-5,"INCLINATION":98.7867,"RA_OF_ASC_NODE":6.5696,"ARG_OF_PERICENTER":266.0215,"MEAN_ANOMALY":94.0916,"EPHEMERIS_TYPE":0,"CLASSIFICATION_TYPE":"U","NORAD_CAT_ID":37849,"ELEMENT_SET_NO":999,"REV_AT_EPOCH":74379,"BSTAR":8.4493904e-5,"MEAN_MOTION_DOT":1.34e-6,"MEAN_MOTION_DDOT":0},{"OBJECT_NAME":"NOAA 20 (JPSS-1)","OBJECT_ID":"2017-073A","EPOCH":"2026-03-05T22:50:27.614400","MEAN_MOTION":14.19534885,"ECCENTRICITY":0.00010425,"INCLINATION":98.7689,"RA_OF_ASC_NODE":5.3761,"ARG_OF_PERICENTER":142.4562,"MEAN_ANOMALY":217.6687,"EPHEMERIS_TYPE":0,"CLASSIFICATION_TYPE":"U","NORAD_CAT_ID":43013,"ELEMENT_SET_NO":999,"REV_AT_EPOCH":42982,"BSTAR":7.4458373e-5,"MEAN_MOTION_DOT":1.13e-6,"MEAN_MOTION_DDOT":0},{"OBJECT_NAME":"NOAA 21 (JPSS-2)","OBJECT_ID":"2022-150A","EPOCH":"2026-03-05T21:59:00.071520","MEAN_MOTION":14.19550893,"ECCENTRICITY":0.00025826,"INCLINATION":98.7551,"RA_OF_ASC_NODE":5.2252,"ARG_OF_PERICENTER":113.2952,"MEAN_ANOMALY":246.8496,"EPHEMERIS_TYPE":0,"CLASSIFICATION_TYPE":"U","NORAD_CAT_ID":54234,"ELEMENT_SET_NO":999,"REV_AT_EPOCH":17189,"BSTAR":7.3277255e-5,"MEAN_MOTION_DOT":1.11e-6,"MEAN_MOTION_DDOT":0}]
