NOAA 17                 
1 27453U 02032A   26064.95749105  .00000301  00000+0  14476-3 0  9994
2 27453  98.8536  29.5477 0010655 293.6697  66.3364 14.26186508232270
NOAA 18                 
1 28654U 05018A   26064.93226565  .00000081  00000+0  66134-4 0  9997
2 28654  98.8162 146.0921 0015343  85.4244 274.8681 14.13709904 71728
NOAA 19                 
1 33591U 09005A   26064.91278970  .00000072  00000+0  62335-4 0  9997
2 33591  98.9613 135.6774 0013035 326.0247  34.0089 14.13455931879899
SUOMI NPP               
1 37849U 11061A   26064.93705605  .00000134  00000+0  84494-4 0  9993
2 37849  98.7867   6.5696 0000398 266.0215  94.0916 14.19542251743795
NOAA 20 (JPSS-1)        
1 43013U 17073A   26064.95170850  .00000113  00000+0  74458-4 0  9998
2 43013  98.7689   5.3761 0001042 142.4562 217.6687 14.19534885429823
NOAA 21 (JPSS-2)        
1 54234U 22150A   26064.91597305  .00000111  00000+0  73277-4 0  9997
2 54234  98.7551   5.2252 0002582 113.2952 246.8496 14.19550893171891
